{"type": "FeatureCollection", "features": [ {"type": "Feature", "properties": {"norad_id": 66593, "name": "STARLINK-36031", "group": "last-30-days", "lat": -8.575378208973323, "lon": 135.85935520256035, "alt_km": 444.3049344035917, "timestamp": "2025-12-20T22:39:09.405678+00:00", "meta": {"OBJECT_NAME": "STARLINK-36031", "OBJECT_ID": "2025-270F", "EPOCH": "2025-12-20T00:00:02.000160", "MEAN_MOTION": 15.4068271, "ECCENTRICITY": 0.0001727, "INCLINATION": 42.9996, "RA_OF_ASC_NODE": 150.6127, "ARG_OF_PERICENTER": 270.7135, "MEAN_ANOMALY": 235.4296, "EPHEMERIS_TYPE": 0, "CLASSIFICATION_TYPE": "U", "NORAD_CAT_ID": 66593, "ELEMENT_SET_NO": 999, "REV_AT_EPOCH": 556, "BSTAR": 0.0009194, "MEAN_MOTION_DOT": 0.00038273, "MEAN_MOTION_DDOT": 0}, "tle": {"line1": "1 66593U 25270F   25354.00002315  .00038273  00000+0  91940-3 0  9993", "line2": "2 66593  42.9996 150.6127 0001727 270.7135 235.4296 15.40682710  5565"}}, "geometry": {"type": "Point", "coordinates": [135.85935520256035, -8.575378208973323]}}, {"type": "Feature", "properties": {"norad_id": 66594, "name": "STARLINK-36032", "group": "last-30-days", "lat": 42.89440735536247, "lon": -129.4849446921721, "alt_km": 438.21545367456656, "timestamp": "2025-12-20T22:39:09.405687+00:00", "meta": {"OBJECT_NAME": "STARLINK-36032", "OBJECT_ID": "2025-270G", "EPOCH": "2025-12-20T14:00:03.000384", "MEAN_MOTION": 15.40691488, "ECCENTRICITY": 0.00014543, "INCLINATION": 42.9997, "RA_OF_ASC_NODE": 147.0107, "ARG_OF_PERICENTER": 249.5142, "MEAN_ANOMALY": 355.4246, "EPHEMERIS_TYPE": 0, "CLASSIFICATION_TYPE": "U", "NORAD_CAT_ID": 66594, "ELEMENT_SET_NO": 999, "REV_AT_EPOCH": 539, "BSTAR": 2.266473e-05, "MEAN_MOTION_DOT": 6.43e-06, "MEAN_MOTION_DDOT": 0}, "tle": {"line1": "1 66594U 25270G   25354.58336806  .00000643  00000+0  22665-4 0  9991", "line2": "2 66594  42.9997 147.0107 0001454 249.5142 355.4246 15.40691488  5395"}}, "geometry": {"type": "Point", "coordinates": [-129.4849446921721, 42.89440735536247]}}, {"type": "Feature", "properties": {"norad_id": 66595, "name": "STARLINK-35711", "group": "last-30-days", "lat": 6.688557570491171, "lon": -42.50252610294194, "alt_km": 417.02114431310474, "timestamp": "2025-12-20T22:39:09.405696+00:00", "meta": {"OBJECT_NAME": "STARLINK-35711", "OBJECT_ID": "2025-270H", "EPOCH": "2025-12-20T03:22:00.602400", "MEAN_MOTION": 15.5018184, "ECCENTRICITY": 0.00034215, "INCLINATION": 42.999, "RA_OF_ASC_NODE": 149.4265, "ARG_OF_PERICENTER": 341.0071, "MEAN_ANOMALY": 19.0661, "EPHEMERIS_TYPE": 0, "CLASSIFICATION_TYPE": "U", "NORAD_CAT_ID": 66595, "ELEMENT_SET_NO": 999, "REV_AT_EPOCH": 560, "BSTAR": 0.0012292638, "MEAN_MOTION_DOT": 0.00071426, "MEAN_MOTION_DDOT": 0}, "tle": {"line1": "1 66595U 25270H   25354.14028475  .00071426  00000+0  12293-2 0  9995", "line2": "2 66595  42.9990 149.4265 0003421 341.0071  19.0661 15.50181840  5600"}}, "geometry": {"type": "Point", "coordinates": [-42.50252610294194, 6.688557570491171]}}, {"type": "Feature", "properties": {"norad_id": 66596, "name": "STARLINK-35811", "group": "last-30-days", "lat": -34.19152436290519, "lon": 12.254320705354086, "alt_km": 445.9758628042209, "timestamp": "2025-12-20T22:39:09.405705+00:00", "meta": {"OBJECT_NAME": "STARLINK-35811", "OBJECT_ID": "2025-270J", "EPOCH": "2025-12-20T10:44:39.514848", "MEAN_MOTION": 15.40718424, "ECCENTRICITY": 0.00013507, "INCLINATION": 42.998, "RA_OF_ASC_NODE": 148.3021, "ARG_OF_PERICENTER": 251.8242, "MEAN_ANOMALY": 108.2467, "EPHEMERIS_TYPE": 0, "CLASSIFICATION_TYPE": "U", "NORAD_CAT_ID": 66596, "ELEMENT_SET_NO": 999, "REV_AT_EPOCH": 564, "BSTAR": 0.00085933251, "MEAN_MOTION_DOT": 0.00035783, "MEAN_MOTION_DDOT": 0}, "tle": {"line1": "1 66596U 25270J   25354.44767957  .00035783  00000+0  85933-3 0  9992", "line2": "2 66596  42.9980 148.3021 0001350 251.8242 108.2467 15.40718424  5647"}}, "geometry": {"type": "Point", "coordinates": [12.254320705354086, -34.19152436290519]}}, {"type": "Feature", "properties": {"norad_id": 66597, "name": "STARLINK-35820", "group": "last-30-days", "lat": -41.136299378956004, "lon": 75.70464452708151, "alt_km": 445.55206621242087, "timestamp": "2025-12-20T22:39:09.405714+00:00", "meta": {"OBJECT_NAME": "STARLINK-35820", "OBJECT_ID": "2025-270K", "EPOCH": "2025-12-20T12:05:06.576576", "MEAN_MOTION": 15.40728378, "ECCENTRICITY": 0.00023281, "INCLINATION": 42.9989, "RA_OF_ASC_NODE": 147.8597, "ARG_OF_PERICENTER": 279.6537, "MEAN_ANOMALY": 80.4056, "EPHEMERIS_TYPE": 0, "CLASSIFICATION_TYPE": "U", "NORAD_CAT_ID": 66597, "ELEMENT_SET_NO": 999, "REV_AT_EPOCH": 565, "BSTAR": 0.0011149945, "MEAN_MOTION_DOT": 0.00046603, "MEAN_MOTION_DDOT": 0}, "tle": {"line1": "1 66597U 25270K   25354.50354834  .00046603  00000+0  11150-2 0  9998", "line2": "2 66597  42.9989 147.8597 0002328 279.6537  80.4056 15.40728378  5655"}}, "geometry": {"type": "Point", "coordinates": [75.70464452708151, -41.136299378956004]}}, {"type": "Feature", "properties": {"norad_id": 66598, "name": "STARLINK-35981", "group": "last-30-days", "lat": 8.26767530340282, "lon": 154.08406786820123, "alt_km": 442.9619227043722, "timestamp": "2025-12-20T22:39:09.405725+00:00", "meta": {"OBJECT_NAME": "STARLINK-35981", "OBJECT_ID": "2025-270L", "EPOCH": "2025-12-20T14:00:03.000384", "MEAN_MOTION": 15.40700692, "ECCENTRICITY": 0.00020061, "INCLINATION": 42.9999, "RA_OF_ASC_NODE": 147.1909, "ARG_OF_PERICENTER": 267.8847, "MEAN_ANOMALY": 262.5067, "EPHEMERIS_TYPE": 0, "CLASSIFICATION_TYPE": "U", "NORAD_CAT_ID": 66598, "ELEMENT_SET_NO": 999, "REV_AT_EPOCH": 550, "BSTAR": -5.8906864e-05, "MEAN_MOTION_DOT": -2.764e-05, "MEAN_MOTION_DDOT": 0}, "tle": {"line1": "1 66598U 25270L   25354.58336806 -.00002764  00000+0 -58907-4 0  9991", "line2": "2 66598  42.9999 147.1909 0002006 267.8847 262.5067 15.40700692  5501"}}, "geometry": {"type": "Point", "coordinates": [154.08406786820123, 8.26767530340282]}}, {"type": "Feature", "properties": {"norad_id": 66599, "name": "STARLINK-35930", "group": "last-30-days", "lat": 1.6537996120284184, "lon": -37.067982877941795, "alt_km": 417.09951682472456, "timestamp": "2025-12-20T22:39:09.405763+00:00", "meta": {"OBJECT_NAME": "STARLINK-35930", "OBJECT_ID": "2025-270M", "EPOCH": "2025-12-19T04:08:36.625632", "MEAN_MOTION": 15.50348464, "ECCENTRICITY": 0.0002903, "INCLINATION": 42.9985, "RA_OF_ASC_NODE": 155.067, "ARG_OF_PERICENTER": 324.189, "MEAN_ANOMALY": 35.8775, "EPHEMERIS_TYPE": 0, "CLASSIFICATION_TYPE": "U", "NORAD_CAT_ID": 66599, "ELEMENT_SET_NO": 999, "REV_AT_EPOCH": 534, "BSTAR": -2.964998e-06, "MEAN_MOTION_DOT": -5.14e-06, "MEAN_MOTION_DDOT": 0}, "tle": {"line1": "1 66599U 25270M   25353.17264613 -.00000514  00000+0 -29650-5 0  9997", "line2": "2 66599  42.9985 155.0670 0002903 324.1890  35.8775 15.50348464  5346"}}, "geometry": {"type": "Point", "coordinates": [-37.067982877941795, 1.6537996120284184]}}, {"type": "Feature", "properties": {"norad_id": 66600, "name": "STARLINK-35980", "group": "last-30-days", "lat": 36.997280489717774, "lon": -161.05010686136708, "alt_km": 439.23909173389984, "timestamp": "2025-12-20T22:39:09.405773+00:00", "meta": {"OBJECT_NAME": "STARLINK-35980", "OBJECT_ID": "2025-270N", "EPOCH": "2025-12-20T14:00:03.000384", "MEAN_MOTION": 15.40700781, "ECCENTRICITY": 0.00019334, "INCLINATION": 43, "RA_OF_ASC_NODE": 147.0702, "ARG_OF_PERICENTER": 273.8019, "MEAN_ANOMALY": 306.3477, "EPHEMERIS_TYPE": 0, "CLASSIFICATION_TYPE": "U", "NORAD_CAT_ID": 66600, "ELEMENT_SET_NO": 999, "REV_AT_EPOCH": 556, "BSTAR": -8.910483e-06, "MEAN_MOTION_DOT": -6.76e-06, "MEAN_MOTION_DDOT": 0}, "tle": {"line1": "1 66600U 25270N   25354.58336806 -.00000676  00000+0 -89105-5 0  9990", "line2": "2 66600  43.0000 147.0702 0001933 273.8019 306.3477 15.40700781  5563"}}, "geometry": {"type": "Point", "coordinates": [-161.05010686136708, 36.997280489717774]}}, {"type": "Feature", "properties": {"norad_id": 66601, "name": "STARLINK-35978", "group": "last-30-days", "lat": -24.26099243444279, "lon": 116.30411934734876, "alt_km": 444.87808641725314, "timestamp": "2025-12-20T22:39:09.405782+00:00", "meta": {"OBJECT_NAME": "STARLINK-35978", "OBJECT_ID": "2025-270P", "EPOCH": "2025-12-19T18:48:31.837248", "MEAN_MOTION": 15.40749629, "ECCENTRICITY": 0.00015732, "INCLINATION": 43.0003, "RA_OF_ASC_NODE": 151.9165, "ARG_OF_PERICENTER": 292.4203, "MEAN_ANOMALY": 67.6487, "EPHEMERIS_TYPE": 0, "CLASSIFICATION_TYPE": "U", "NORAD_CAT_ID": 66601, "ELEMENT_SET_NO": 999, "REV_AT_EPOCH": 527, "BSTAR": 0.0011909611, "MEAN_MOTION_DOT": 0.00049854, "MEAN_MOTION_DDOT": 0}, "tle": {"line1": "1 66601U 25270P   25353.78370182  .00049854  00000+0  11910-2 0  9992", "line2": "2 66601  43.0003 151.9165 0001573 292.4203  67.6487 15.40749629  5276"}}, "geometry": {"type": "Point", "coordinates": [116.30411934734876, -24.26099243444279]}}, {"type": "Feature", "properties": {"norad_id": 66602, "name": "STARLINK-36050", "group": "last-30-days", "lat": -39.278680144968156, "lon": 26.776284286040596, "alt_km": 445.8879045980975, "timestamp": "2025-12-20T22:39:09.405791+00:00", "meta": {"OBJECT_NAME": "STARLINK-36050", "OBJECT_ID": "2025-270Q", "EPOCH": "2025-12-19T17:34:32.507616", "MEAN_MOTION": 15.40725936, "ECCENTRICITY": 0.00016299, "INCLINATION": 42.9991, "RA_OF_ASC_NODE": 152.3934, "ARG_OF_PERICENTER": 264.4094, "MEAN_ANOMALY": 95.6576, "EPHEMERIS_TYPE": 0, "CLASSIFICATION_TYPE": "U", "NORAD_CAT_ID": 66602, "ELEMENT_SET_NO": 999, "REV_AT_EPOCH": 532, "BSTAR": 0.00096253601, "MEAN_MOTION_DOT": 0.00040151, "MEAN_MOTION_DDOT": 0}, "tle": {"line1": "1 66602U 25270Q   25353.73232069  .00040151  00000+0  96254-3 0  9995", "line2": "2 66602  42.9991 152.3934 0001629 264.4094  95.6576 15.40725936  5320"}}, "geometry": {"type": "Point", "coordinates": [26.776284286040596, -39.278680144968156]}}]}